[{"OBJECT_NAME":"STARLINK-1733","OBJECT_ID":"2020-070AJ","EPOCH":"2026-03-10T00:00:02.999808","MEAN_MOTION":15.74070769,"ECCENTRICITY":0.00019603,"INCLINATION":53.0418,"RA_OF_ASC_NODE":105.8439,"ARG_OF_PERICENTER":358.1851,"MEAN_ANOMALY":270.2405,"EPHEMERIS_TYPE":0,"CLASSIFICATION_TYPE":"U","NORAD_CAT_ID":46564,"ELEMENT_SET_NO":999,"REV_AT_EPOCH":596,"BSTAR":0.0010340128,"MEAN_MOTION_DOT":0.0015282,"MEAN_MOTION_DDOT":0},{"OBJECT_NAME":"STARLINK-36631","OBJECT_ID":"2026-018P","EPOCH":"2026-03-09T19:52:27.137568","MEAN_MOTION":15.75231411,"ECCENTRICITY":0.00014679,"INCLINATION":97.2835,"RA_OF_ASC_NODE":134.7101,"ARG_OF_PERICENTER":80.5798,"MEAN_ANOMALY":279.5633,"EPHEMERIS_TYPE":0,"CLASSIFICATION_TYPE":"U","NORAD_CAT_ID":67602,"ELEMENT_SET_NO":999,"REV_AT_EPOCH":733,"BSTAR":0.0015534846,"MEAN_MOTION_DOT":0.00238601,"MEAN_MOTION_DDOT":0}]
